*******************************************************************************
JPL/HORIZONS                82 Alkmene (A864 WA)           2020-Jun-20 08:06:34
Rec #:      82 (+COV) Soln.date: 2020-Jan-28_17:13:57   # obs: 2994 (1864-2020)
 
IAU76/J2000 helio. ecliptic osc. elements (au, days, deg., period=Julian yrs):
 
  EPOCH=  2454411.5 ! 2007-Nov-07.00 (TDB)         Residual RMS= .31902
   EC= .2242779492045615   QR= 2.140799614300348   TP= 2454419.1877076481
   OM= 25.6290562617381    W=  110.3610366274401   IN= 2.832926716925888
   A= 2.759750882555338    MA= 358.347292066052    ADIST= 3.378702150810327
   PER= 4.58472            N= .214980585           ANGMOM= .027848991
   DAN= 2.84277            DDN= 2.43122            L= 136.012958
   B= 2.6557909            MOID= 1.15576994        TP= 2007-Nov-14.6877076481
 
Asteroid physical parameters (km, seconds, rotational period in hours):
   GM= n.a.                RAD= 28.8105            ROTPER= 12.999
   H= 8.2                  G= .280                 B-V= .814
                           ALBEDO= .167            STYP= Sq
 
ASTEROID comments: 
1: soln ref.= JPL#108, OCC=0
2: source=ORB
*******************************************************************************
 
 
*******************************************************************************
Ephemeris / WWW_USER Sat Jun 20 08:06:34 2020 Pasadena, USA      / Horizons
*******************************************************************************
Target body name: 82 Alkmene (A864 WA)            {source: JPL#108}
Center body name: Solar System Barycenter (0)     {source: DE431}
Center-site name: BODY CENTER
*******************************************************************************
Start time      : A.D. 1969-Jun-28 00:00:00.0000 TDB
Stop  time      : A.D. 2071-May-04 00:00:00.0000 TDB
Step-size       : 7200 minutes
*******************************************************************************
Center geodetic : 0.00000000,0.00000000,0.0000000 {E-lon(deg),Lat(deg),Alt(km)}
Center cylindric: 0.00000000,0.00000000,0.0000000 {E-lon(deg),Dxy(km),Dz(km)}
Center radii    : (undefined)                                                  
Small perturbers: Yes                             {source: SB431-N16}
Output units    : AU-D
Output type     : GEOMETRIC cartesian states
Output format   : 2 (position and velocity)
Reference frame : Ecliptic of J2000.0
*******************************************************************************
Initial IAU76/J2000 heliocentric ecliptic osculating elements (au, days, deg.):
  EPOCH=  2454411.5 ! 2007-Nov-07.00 (TDB)         Residual RMS= .31902        
   EC= .2242779492045615   QR= 2.140799614300348   TP= 2454419.1877076481      
   OM= 25.6290562617381    W=  110.3610366274401   IN= 2.832926716925888       
  Equivalent ICRF heliocentric equatorial cartesian coordinates (au, au/d):
   X=-1.467792412373206E+00  Y= 1.387241646423773E+00  Z= 7.113374311570688E-01
  VX=-9.389127282918993E-03 VY=-8.176293190651178E-03 VZ=-3.763403752316232E-03
Asteroid physical parameters (km, seconds, rotational period in hours):        
   GM= n.a.                RAD= 28.8105            ROTPER= 12.999              
   H= 8.2                  G= .280                 B-V= .814                   
                           ALBEDO= .167            STYP= Sq                    
*******************************************************************************
            JDTDB,            Calendar Date (TDB),        delta-T,                      X,                      Y,                      Z,                     VX,                     VY,                     VZ,
******************************************************************************************************************************************************************************************************************
$$SOE
2467280.500000000, A.D. 2043-Jan-31 00:00:00.0000,      69.184766,  3.171674648764804E+00, -1.949902914104714E-01, -7.478303084217329E-02, -9.037433671938125E-04,  8.844169648993426E-03,  4.154191465630358E-04,
2467285.500000000, A.D. 2043-Feb-05 00:00:00.0000,      69.184893,  3.166789390961964E+00, -1.507480443862114E-01, -7.269737562561408E-02, -1.050492691049705E-03,  8.852397163991830E-03,  4.188307990465964E-04,
2467290.500000000, A.D. 2043-Feb-10 00:00:00.0000,      69.185014,  3.161168400984473E+00, -1.064696640398796E-01, -7.059484552808833E-02, -1.198034518480062E-03,  8.858618094364643E-03,  4.221688442886950E-04,
2467295.500000000, A.D. 2043-Feb-15 00:00:00.0000,      69.185128,  3.154807742559081E+00, -6.216525712437573E-02, -6.847581244129944E-02, -1.346358257376453E-03,  8.862802792334571E-03,  4.254317329398013E-04,
2467300.500000000, A.D. 2043-Feb-20 00:00:00.0000,      69.185231,  3.147703533813722E+00, -1.784508037659710E-02, -6.634065611183620E-02, -1.495452733980813E-03,  8.864920910675393E-03,  4.286178722206207E-04,
2467305.500000000, A.D. 2043-Feb-25 00:00:00.0000,      69.185323,  3.139851950267756E+00,  2.648045596456328E-02, -6.418976436095039E-02, -1.645306159865850E-03,  8.864941394475193E-03,  4.317256248690534E-04,
2467310.500000000, A.D. 2043-Mar-02 00:00:00.0000,      69.185406,  3.131249227990698E+00,  7.080078460004649E-02, -6.202353330962020E-02, -1.795906097546801E-03,  8.862832473312245E-03,  4.347533080791049E-04,
2467315.500000000, A.D. 2043-Mar-07 00:00:00.0000,      69.185480,  3.121891666936461E+00,  1.151051775744551E-01, -5.984236760893815E-02, -1.947239424655607E-03,  8.858561653883542E-03,  4.376991924323320E-04,
2467320.500000000, A.D. 2043-Mar-12 00:00:00.0000,      69.185543,  3.111775634460435E+00,  1.593827426441975E-01, -5.764668067586409E-02, -2.099292296626650E-03,  8.852095713102658E-03,  4.405615008192749E-04,
2467325.500000000, A.D. 2043-Mar-17 00:00:00.0000,      69.185595,  3.100897569026829E+00,  2.036224196123035E-01, -5.543689493440907E-02, -2.252050107918637E-03,  8.843400691675307E-03,  4.433384073446663E-04,
2467330.500000000, A.D. 2043-Mar-22 00:00:00.0000,      69.185633,  3.089253984113260E+00,  2.478129766324552E-01, -5.321344206234387E-02, -2.405497451928673E-03,  8.832441888242382E-03,  4.460280362135592E-04,
2467335.500000000, A.D. 2043-Mar-27 00:00:00.0000,      69.185658,  3.076841472318911E+00,  2.919430064857561E-01, -5.097676324348122E-02, -2.559618079608129E-03,  8.819183854392992E-03,  4.486284606216686E-04,
2467340.500000000, A.D. 2043-Apr-01 00:00:00.0000,      69.185670,  3.063656709683724E+00,  3.360009228354187E-01, -4.872730942541643E-02, -2.714394856334827E-03,  8.803590390837088E-03,  4.511377016856535E-04,
2467345.500000000, A.D. 2043-Apr-06 00:00:00.0000,      69.185672,  3.049696460228830E+00,  3.799749564649060E-01, -4.646554158252776E-02, -2.869809716491177E-03,  8.785624544548119E-03,  4.535537274018977E-04,
2467350.500000000, A.D. 2043-Apr-11 00:00:00.0000,      69.185663,  3.034957580729486E+00,  4.238531515035228E-01, -4.419193098421104E-02, -3.025843616000119E-03,  8.765248606587941E-03,  4.558744515881364E-04,
2467355.500000000, A.D. 2043-Apr-16 00:00:00.0000,      69.185641,  3.019437025729272E+00,  4.676233616431912E-01, -4.190695946846066E-02, -3.182476483313680E-03,  8.742424110825119E-03,  4.580977328086780E-04,
2467360.500000000, A.D. 2043-Apr-21 00:00:00.0000,      69.185605,  3.003131852803317E+00,  5.112732463518584E-01, -3.961111972079338E-02, -3.339687168764413E-03,  8.717111833912774E-03,  4.602213733164141E-04,
2467365.500000000, A.D. 2043-Apr-26 00:00:00.0000,      69.185557,  2.986039228079527E+00,  5.547902670902743E-01, -3.730491555838505E-02, -3.497453391970370E-03,  8.689271796667090E-03,  4.622431180264764E-04,
2467370.500000000, A.D. 2043-May-01 00:00:00.0000,      69.185498,  2.968156432028003E+00,  5.981616835392363E-01, -3.498886221925848E-02, -3.655751687143228E-03,  8.658863266881972E-03,  4.641606535219344E-04,
2467375.500000000, A.D. 2043-May-06 00:00:00.0000,      69.185430,  2.949480865529233E+00,  6.413745498445949E-01, -3.266348665636390E-02, -3.814557346269609E-03,  8.625844763628519E-03,  4.659716070908684E-04,
2467380.500000000, A.D. 2043-May-11 00:00:00.0000,      69.185352,  2.930010056231664E+00,  6.844157108876141E-01, -3.032932783639468E-02, -3.973844360185232E-03,  8.590174063111697E-03,  4.676735457953183E-04,
2467385.500000000, A.D. 2043-May-16 00:00:00.0000,      69.185264,  2.909741665209060E+00,  7.272717985887101E-01, -2.798693704317825E-02, -4.133585357598647E-03,  8.551808206184588E-03,  4.692639755729112E-04,
2467390.500000000, A.D. 2043-May-21 00:00:00.0000,      69.185166,  2.888673493927693E+00,  7.699292282531984E-01, -2.563687818547234E-02, -4.293751542146610E-03,  8.510703507668410E-03,  4.707403403725636E-04,
2467395.500000000, A.D. 2043-May-26 00:00:00.0000,      69.185058,  2.866803491533022E+00,  8.123741949686080E-01, -2.327972810899201E-02, -4.454312627556863E-03,  8.466815567703219E-03,  4.721000213285601E-04,
2467400.500000000, A.D. 2043-May-31 00:00:00.0000,      69.184944,  2.844129762465240E+00,  8.545926700644420E-01, -2.091607691245053E-02, -4.615236770928279E-03,  8.420099285431850E-03,  4.733403359823174E-04,
2467405.500000000, A.D. 2043-Jun-05 00:00:00.0000,      69.184824,  2.820650574413321E+00,  8.965703976469076E-01, -1.854652826734280E-02, -4.776490504017683E-03,  8.370508875359671E-03,  4.744585375664139E-04,
2467410.500000000, A.D. 2043-Jun-10 00:00:00.0000,      69.184700,  2.796364366618092E+00,  9.382928912227582E-01, -1.617169974112255E-02, -4.938038662311017E-03,  8.317997886677036E-03,  4.754518143649507E-04,
2467415.500000000, A.D. 2043-Jun-15 00:00:00.0000,      69.184569,  2.771269758535914E+00,  9.797454304274620E-01, -1.379222312337567E-02, -5.099844311681128E-03,  8.262519225672511E-03,  4.763172891540425E-04,
